CCSDS_OMM_VERS = 2.0
CREATION_DATE  = 
ORIGINATOR     = 

OBJECT_NAME    = UNKNOWN
OBJECT_ID      = 
CENTER_NAME    = EARTH
REF_FRAME      = TEME
TIME_SYSTEM    = UTC
MEAN_ELEMENT_THEORY = SGP/SGP4

EPOCH          = 2026-04-04T12:06:21.745440
MEAN_MOTION    = 12.98418745
ECCENTRICITY   = .00264504
INCLINATION    = 90.2487
RA_OF_ASC_NODE = 7.1641
ARG_OF_PERICENTER = 250.9128
MEAN_ANOMALY   = 108.9129

EPHEMERIS_TYPE = 0
CLASSIFICATION_TYPE = U
NORAD_CAT_ID   = 270268
ELEMENT_SET_NO = 999
REV_AT_EPOCH   = 28711
BSTAR          = .35144122E-2
MEAN_MOTION_DOT = .1042E-4
MEAN_MOTION_DDOT = 0

CCSDS_OMM_VERS = 2.0
CREATION_DATE  = 
ORIGINATOR     = 

OBJECT_NAME    = UNKNOWN
OBJECT_ID      = 
CENTER_NAME    = EARTH
REF_FRAME      = TEME
TIME_SYSTEM    = UTC
MEAN_ELEMENT_THEORY = SGP/SGP4

EPOCH          = 2026-04-02T10:17:37.857696
MEAN_MOTION    = 13.30567643
ECCENTRICITY   = .00848838
INCLINATION    = 82.5866
RA_OF_ASC_NODE = 162.7500
ARG_OF_PERICENTER = 147.7816
MEAN_ANOMALY   = 212.8540

EPHEMERIS_TYPE = 0
CLASSIFICATION_TYPE = U
NORAD_CAT_ID   = 270269
ELEMENT_SET_NO = 999
REV_AT_EPOCH   = 29356
BSTAR          = .70415726E-3
MEAN_MOTION_DOT = .352E-5
MEAN_MOTION_DDOT = 0

CCSDS_OMM_VERS = 2.0
CREATION_DATE  = 
ORIGINATOR     = 

OBJECT_NAME    = UNKNOWN
OBJECT_ID      = 
CENTER_NAME    = EARTH
REF_FRAME      = TEME
TIME_SYSTEM    = UTC
MEAN_ELEMENT_THEORY = SGP/SGP4

EPOCH          = 2026-04-05T11:21:24.676992
MEAN_MOTION    = 12.98367480
ECCENTRICITY   = .00286822
INCLINATION    = 90.2558
RA_OF_ASC_NODE = 10.7244
ARG_OF_PERICENTER = 223.0371
MEAN_ANOMALY   = 136.8507

EPHEMERIS_TYPE = 0
CLASSIFICATION_TYPE = U
NORAD_CAT_ID   = 270274
ELEMENT_SET_NO = 999
REV_AT_EPOCH   = 28681
BSTAR          = -.19607006E-3
MEAN_MOTION_DOT = -.5E-6
MEAN_MOTION_DDOT = 0

CCSDS_OMM_VERS = 2.0
CREATION_DATE  = 
ORIGINATOR     = 

OBJECT_NAME    = UNKNOWN
OBJECT_ID      = 
CENTER_NAME    = EARTH
REF_FRAME      = TEME
TIME_SYSTEM    = UTC
MEAN_ELEMENT_THEORY = SGP/SGP4

EPOCH          = 2026-03-31T22:30:37.640160
MEAN_MOTION    = 13.93431076
ECCENTRICITY   = .02914137
INCLINATION    = 86.4352
RA_OF_ASC_NODE = 342.6623
ARG_OF_PERICENTER = 227.1453
MEAN_ANOMALY   = 130.4909

EPHEMERIS_TYPE = 0
CLASSIFICATION_TYPE = U
NORAD_CAT_ID   = 270275
ELEMENT_SET_NO = 999
REV_AT_EPOCH   = 3267
BSTAR          = .3765495E-2
MEAN_MOTION_DOT = .7015E-4
MEAN_MOTION_DDOT = 0

CCSDS_OMM_VERS = 2.0
CREATION_DATE  = 
ORIGINATOR     = 

OBJECT_NAME    = UNKNOWN
OBJECT_ID      = 
CENTER_NAME    = EARTH
REF_FRAME      = TEME
TIME_SYSTEM    = UTC
MEAN_ELEMENT_THEORY = SGP/SGP4

EPOCH          = 2026-04-05T10:18:10.308672
MEAN_MOTION    = 12.93740178
ECCENTRICITY   = .00317398
INCLINATION    = 90.2305
RA_OF_ASC_NODE = 2.3229
ARG_OF_PERICENTER = 5.1393
MEAN_ANOMALY   = 355.0046

EPHEMERIS_TYPE = 0
CLASSIFICATION_TYPE = U
NORAD_CAT_ID   = 270279
ELEMENT_SET_NO = 999
REV_AT_EPOCH   = 28444
BSTAR          = -.23796569E-2
MEAN_MOTION_DOT = -.649E-5
MEAN_MOTION_DDOT = 0

CCSDS_OMM_VERS = 2.0
CREATION_DATE  = 
ORIGINATOR     = 

OBJECT_NAME    = UNKNOWN
OBJECT_ID      = 
CENTER_NAME    = EARTH
REF_FRAME      = TEME
TIME_SYSTEM    = UTC
MEAN_ELEMENT_THEORY = SGP/SGP4

EPOCH          = 2026-04-05T11:50:56.364288
MEAN_MOTION    = 12.96976902
ECCENTRICITY   = .0027034
INCLINATION    = 90.2450
RA_OF_ASC_NODE = 5.6127
ARG_OF_PERICENTER = 197.3777
MEAN_ANOMALY   = 162.6420

EPHEMERIS_TYPE = 0
CLASSIFICATION_TYPE = U
NORAD_CAT_ID   = 270280
ELEMENT_SET_NO = 999
REV_AT_EPOCH   = 28529
BSTAR          = .13432613E-2
MEAN_MOTION_DOT = .395E-5
MEAN_MOTION_DDOT = 0

CCSDS_OMM_VERS = 2.0
CREATION_DATE  = 
ORIGINATOR     = 

OBJECT_NAME    = UNKNOWN
OBJECT_ID      = 
CENTER_NAME    = EARTH
REF_FRAME      = TEME
TIME_SYSTEM    = UTC
MEAN_ELEMENT_THEORY = SGP/SGP4

EPOCH          = 2026-03-20T17:36:20.710656
MEAN_MOTION    = 12.32641691
ECCENTRICITY   = .00382879
INCLINATION    = 82.5040
RA_OF_ASC_NODE = 262.3871
ARG_OF_PERICENTER = 93.7854
MEAN_ANOMALY   = 266.7599

EPHEMERIS_TYPE = 0
CLASSIFICATION_TYPE = U
NORAD_CAT_ID   = 270281
ELEMENT_SET_NO = 999
REV_AT_EPOCH   = 26804
BSTAR          = .86879705E-2
MEAN_MOTION_DOT = .1067E-4
MEAN_MOTION_DDOT = 0

CCSDS_OMM_VERS = 2.0
CREATION_DATE  = 
ORIGINATOR     = 

OBJECT_NAME    = UNKNOWN
OBJECT_ID      = 
CENTER_NAME    = EARTH
REF_FRAME      = TEME
TIME_SYSTEM    = UTC
MEAN_ELEMENT_THEORY = SGP/SGP4

EPOCH          = 2026-04-01T18:48:21.121920
MEAN_MOTION    = 12.25644854
ECCENTRICITY   = .04793787
INCLINATION    = 82.7501
RA_OF_ASC_NODE = 109.9460
ARG_OF_PERICENTER = 162.6655
MEAN_ANOMALY   = 199.1441

EPHEMERIS_TYPE = 0
CLASSIFICATION_TYPE = U
NORAD_CAT_ID   = 270282
ELEMENT_SET_NO = 999
REV_AT_EPOCH   = 27118
BSTAR          = .12702292E-2
MEAN_MOTION_DOT = .217E-5
MEAN_MOTION_DDOT = 0

CCSDS_OMM_VERS = 2.0
CREATION_DATE  = 
ORIGINATOR     = 

OBJECT_NAME    = UNKNOWN
OBJECT_ID      = 
CENTER_NAME    = EARTH
REF_FRAME      = TEME
TIME_SYSTEM    = UTC
MEAN_ELEMENT_THEORY = SGP/SGP4

EPOCH          = 2026-03-22T22:15:32.411808
MEAN_MOTION    = 12.96098965
ECCENTRICITY   = .01865761
INCLINATION    = 82.7011
RA_OF_ASC_NODE = 313.6085
ARG_OF_PERICENTER = 7.2792
MEAN_ANOMALY   = 353.0959

EPHEMERIS_TYPE = 0
CLASSIFICATION_TYPE = U
NORAD_CAT_ID   = 270284
ELEMENT_SET_NO = 999
REV_AT_EPOCH   = 28024
BSTAR          = .90650764E-2
MEAN_MOTION_DOT = .2805E-4
MEAN_MOTION_DDOT = 0

CCSDS_OMM_VERS = 2.0
CREATION_DATE  = 
ORIGINATOR     = 

OBJECT_NAME    = UNKNOWN
OBJECT_ID      = 
CENTER_NAME    = EARTH
REF_FRAME      = TEME
TIME_SYSTEM    = UTC
MEAN_ELEMENT_THEORY = SGP/SGP4

EPOCH          = 2026-03-21T05:23:49.768512
MEAN_MOTION    = 13.03366816
ECCENTRICITY   = .01956326
INCLINATION    = 101.8191
RA_OF_ASC_NODE = 65.1385
ARG_OF_PERICENTER = 24.2157
MEAN_ANOMALY   = 336.7990

EPHEMERIS_TYPE = 0
CLASSIFICATION_TYPE = U
NORAD_CAT_ID   = 270286
ELEMENT_SET_NO = 999
REV_AT_EPOCH   = 2678
BSTAR          = .3134933E-2
MEAN_MOTION_DOT = .1033E-4
MEAN_MOTION_DDOT = 0

CCSDS_OMM_VERS = 2.0
CREATION_DATE  = 
ORIGINATOR     = 

OBJECT_NAME    = UNKNOWN
OBJECT_ID      = 
CENTER_NAME    = EARTH
REF_FRAME      = TEME
TIME_SYSTEM    = UTC
MEAN_ELEMENT_THEORY = SGP/SGP4

EPOCH          = 2026-04-05T11:56:00.309984
MEAN_MOTION    = 12.95813301
ECCENTRICITY   = .0031605
INCLINATION    = 90.2447
RA_OF_ASC_NODE = 4.5985
ARG_OF_PERICENTER = 322.8525
MEAN_ANOMALY   = 37.0408

EPHEMERIS_TYPE = 0
CLASSIFICATION_TYPE = U
NORAD_CAT_ID   = 270288
ELEMENT_SET_NO = 999
REV_AT_EPOCH   = 28485
BSTAR          = .14661404E-2
MEAN_MOTION_DOT = .424E-5
MEAN_MOTION_DDOT = 0

CCSDS_OMM_VERS = 2.0
CREATION_DATE  = 
ORIGINATOR     = 

OBJECT_NAME    = UNKNOWN
OBJECT_ID      = 
CENTER_NAME    = EARTH
REF_FRAME      = TEME
TIME_SYSTEM    = UTC
MEAN_ELEMENT_THEORY = SGP/SGP4

EPOCH          = 2026-03-14T20:30:03.988512
MEAN_MOTION    = 12.50170129
ECCENTRICITY   = .00192246
INCLINATION    = 73.6014
RA_OF_ASC_NODE = 296.3191
ARG_OF_PERICENTER = 159.5184
MEAN_ANOMALY   = 200.6640

EPHEMERIS_TYPE = 0
CLASSIFICATION_TYPE = U
NORAD_CAT_ID   = 270292
ELEMENT_SET_NO = 999
REV_AT_EPOCH   = 28725
BSTAR          = .42281862E-2
MEAN_MOTION_DOT = .627E-5
MEAN_MOTION_DDOT = 0

CCSDS_OMM_VERS = 2.0
CREATION_DATE  = 
ORIGINATOR     = 

OBJECT_NAME    = UNKNOWN
OBJECT_ID      = 
CENTER_NAME    = EARTH
REF_FRAME      = TEME
TIME_SYSTEM    = UTC
MEAN_ELEMENT_THEORY = SGP/SGP4

EPOCH          = 2026-04-03T04:42:32.074848
MEAN_MOTION    = 14.55164442
ECCENTRICITY   = .0005644
INCLINATION    = 98.6850
RA_OF_ASC_NODE = 262.3343
ARG_OF_PERICENTER = 343.1662
MEAN_ANOMALY   = 16.9346

EPHEMERIS_TYPE = 0
CLASSIFICATION_TYPE = U
NORAD_CAT_ID   = 270293
ELEMENT_SET_NO = 999
REV_AT_EPOCH   = 33596
BSTAR          = .66604557E-3
MEAN_MOTION_DOT = .283E-4
MEAN_MOTION_DDOT = 0

CCSDS_OMM_VERS = 2.0
CREATION_DATE  = 
ORIGINATOR     = 

OBJECT_NAME    = UNKNOWN
OBJECT_ID      = 
CENTER_NAME    = EARTH
REF_FRAME      = TEME
TIME_SYSTEM    = UTC
MEAN_ELEMENT_THEORY = SGP/SGP4

EPOCH          = 2026-04-03T01:50:10.127040
MEAN_MOTION    = 14.30952540
ECCENTRICITY   = .00736239
INCLINATION    = 99.1708
RA_OF_ASC_NODE = 27.5958
ARG_OF_PERICENTER = 185.4426
MEAN_ANOMALY   = 174.5963

EPHEMERIS_TYPE = 0
CLASSIFICATION_TYPE = U
NORAD_CAT_ID   = 270294
ELEMENT_SET_NO = 999
REV_AT_EPOCH   = 33025
BSTAR          = .13657337E-2
MEAN_MOTION_DOT = .3651E-4
MEAN_MOTION_DDOT = 0

CCSDS_OMM_VERS = 2.0
CREATION_DATE  = 
ORIGINATOR     = 

OBJECT_NAME    = UNKNOWN
OBJECT_ID      = 
CENTER_NAME    = EARTH
REF_FRAME      = TEME
TIME_SYSTEM    = UTC
MEAN_ELEMENT_THEORY = SGP/SGP4

EPOCH          = 2026-04-05T03:36:17.329248
MEAN_MOTION    = 14.76176829
ECCENTRICITY   = .00920041
INCLINATION    = 97.7357
RA_OF_ASC_NODE = 60.0143
ARG_OF_PERICENTER = 65.9306
MEAN_ANOMALY   = 295.1497

EPHEMERIS_TYPE = 0
CLASSIFICATION_TYPE = U
NORAD_CAT_ID   = 270295
ELEMENT_SET_NO = 999
REV_AT_EPOCH   = 10573
BSTAR          = .36308284E-2
MEAN_MOTION_DOT = .26944E-3
MEAN_MOTION_DDOT = 0

CCSDS_OMM_VERS = 2.0
CREATION_DATE  = 
ORIGINATOR     = 

OBJECT_NAME    = UNKNOWN
OBJECT_ID      = 
CENTER_NAME    = EARTH
REF_FRAME      = TEME
TIME_SYSTEM    = UTC
MEAN_ELEMENT_THEORY = SGP/SGP4

EPOCH          = 2026-03-31T00:21:38.621376
MEAN_MOTION    = 12.98055143
ECCENTRICITY   = .00261702
INCLINATION    = 90.2455
RA_OF_ASC_NODE = 5.2449
ARG_OF_PERICENTER = 220.9844
MEAN_ANOMALY   = 138.9311

EPHEMERIS_TYPE = 0
CLASSIFICATION_TYPE = U
NORAD_CAT_ID   = 270296
ELEMENT_SET_NO = 999
REV_AT_EPOCH   = 29939
BSTAR          = -.81301466E-3
MEAN_MOTION_DOT = -.231E-5
MEAN_MOTION_DDOT = 0

